{
    "links": {
        "self": "http://www.neowsapp.com/rest/v1/neo/3425605?api_key=iIulBulltgU6a56xZRHN4H3l9WmuAYTsLGpBGhQ2"
    },
    "id": "3425605",
    "neo_reference_id": "3425605",
    "name": "(2008 QZ)",
    "designation": "2008 QZ",
    "nasa_jpl_url": "http://ssd.jpl.nasa.gov/sbdb.cgi?sstr=3425605",
    "absolute_magnitude_h": 20.4,
    "estimated_diameter": {
        "kilometers": {
            "estimated_diameter_min": 0.2210828104,
            "estimated_diameter_max": 0.4943561926
        },
        "meters": {
            "estimated_diameter_min": 221.0828103591,
            "estimated_diameter_max": 494.3561926196
        },
        "miles": {
            "estimated_diameter_min": 0.137374447,
            "estimated_diameter_max": 0.3071786018
        },
        "feet": {
            "estimated_diameter_min": 725.3373275385,
            "estimated_diameter_max": 1621.9035709942
        }
    },
    "is_potentially_hazardous_asteroid": false,
    "close_approach_data": [
        {
            "close_approach_date": "1992-09-12",
            "close_approach_date_full": "1992-Sep-12 03:30",
            "epoch_date_close_approach": 716268600000,
            "relative_velocity": {
                "kilometers_per_second": "4.204623077",
                "kilometers_per_hour": "15136.6430770993",
                "miles_per_hour": "9405.3213608787"
            },
            "miss_distance": {
                "astronomical": "0.2463887106",
                "lunar": "95.8452084234",
                "kilometers": "36859226.297806422",
                "miles": "22903261.1831237436"
            },
            "orbiting_body": "Earth"
        },
        {
            "close_approach_date": "2008-09-17",
            "close_approach_date_full": "2008-Sep-17 13:42",
            "epoch_date_close_approach": 1221658920000,
            "relative_velocity": {
                "kilometers_per_second": "4.3529831683",
                "kilometers_per_hour": "15670.7394059726",
                "miles_per_hour": "9737.1880492278"
            },
            "miss_distance": {
                "astronomical": "0.2701930875",
                "lunar": "105.1051110375",
                "kilometers": "40420310.378723625",
                "miles": "25116016.224191025"
            },
            "orbiting_body": "Earth"
        },
        {
            "close_approach_date": "2024-09-25",
            "close_approach_date_full": "2024-Sep-25 12:24",
            "epoch_date_close_approach": 1727267040000,
            "relative_velocity": {
                "kilometers_per_second": "4.3405819969",
                "kilometers_per_hour": "15626.0951887784",
                "miles_per_hour": "9709.4478688273"
            },
            "miss_distance": {
                "astronomical": "0.3429349858",
                "lunar": "133.4017094762",
                "kilometers": "51302343.424160246",
                "miles": "31877798.0106375548"
            },
            "orbiting_body": "Earth"
        }
    ],
    "orbital_data": {
        "orbit_id": "27",
        "orbit_determination_date": "2017-04-06 09:03:05",
        "first_observation_date": "2008-08-22",
        "last_observation_date": "2008-10-31",
        "data_arc_in_days": 70,
        "observations_used": 140,
        "orbit_uncertainty": "5",
        "minimum_orbit_intersection": ".247737",
        "jupiter_tisserand_invariant": "3.561",
        "epoch_osculation": "2459000.5",
        "eccentricity": ".4231690193329017",
        "semi_major_axis": "2.168910027496407",
        "inclination": "6.826515711307839",
        "ascending_node_longitude": "160.634890144737",
        "orbital_period": "1166.704120837144",
        "perihelion_distance": "1.251094498139456",
        "perihelion_argument": "194.3533278826247",
        "aphelion_distance": "3.086725556853358",
        "perihelion_time": "2459389.743721903644",
        "mean_anomaly": "239.8943644899737",
        "mean_motion": ".3085615226435384",
        "equinox": "J2000",
        "orbit_class": {
            "orbit_class_type": "AMO",
            "orbit_class_description": "Near-Earth asteroid orbits similar to that of 1221 Amor",
            "orbit_class_range": "1.017 AU < q (perihelion) < 1.3 AU"
        }
    },
    "is_sentry_object": false
}